[{"OBJECT_NAME":"ONEWEB-0183","OBJECT_ID":"2021-031K","EPOCH":"2025-08-20T19:56:28.253184","MEAN_MOTION":13.14503301,"ECCENTRICITY":0.0001974,"INCLINATION":87.9087,"RA_OF_ASC_NODE":349.4998,"ARG_OF_PERICENTER":104.9106,"MEAN_ANOMALY":255.2242,"EPHEMERIS_TYPE":0,"CLASSIFICATION_TYPE":"U","NORAD_CAT_ID":48219,"ELEMENT_SET_NO":999,"REV_AT_EPOCH":20886,"BSTAR":-0.0006859,"MEAN_MOTION_DOT":-2.42e-6,"MEAN_MOTION_DDOT":0},{"OBJECT_NAME":"ONEWEB-0185","OBJECT_ID":"2021-031L","EPOCH":"2025-08-20T18:44:33.414720","MEAN_MOTION":13.1450232,"ECCENTRICITY":0.0001876,"INCLINATION":87.9088,"RA_OF_ASC_NODE":349.4756,"ARG_OF_PERICENTER":112.8187,"MEAN_ANOMALY":247.3141,"EPHEMERIS_TYPE":0,"CLASSIFICATION_TYPE":"U","NORAD_CAT_ID":48220,"ELEMENT_SET_NO":999,"REV_AT_EPOCH":20878,"BSTAR":0.00047702,"MEAN_MOTION_DOT":1.9e-6,"MEAN_MOTION_DDOT":0},{"OBJECT_NAME":"ONEWEB-0187","OBJECT_ID":"2021-031M","EPOCH":"2025-08-20T20:05:25.503936","MEAN_MOTION":13.14502343,"ECCENTRICITY":0.00017,"INCLINATION":87.9085,"RA_OF_ASC_NODE":349.5108,"ARG_OF_PERICENTER":108.4803,"MEAN_ANOMALY":251.6511,"EPHEMERIS_TYPE":0,"CLASSIFICATION_TYPE":"U","NORAD_CAT_ID":48221,"ELEMENT_SET_NO":999,"REV_AT_EPOCH":20880,"BSTAR":-0.00028177,"MEAN_MOTION_DOT":-9.2e-7,"MEAN_MOTION_DDOT":0},{"OBJECT_NAME":"ONEWEB-0192","OBJECT_ID":"2021-031N","EPOCH":"2025-08-20T21:11:50.652960","MEAN_MOTION":13.14502044,"ECCENTRICITY":0.0001748,"INCLINATION":87.9088,"RA_OF_ASC_NODE":349.4954,"ARG_OF_PERICENTER":98.2136,"MEAN_ANOMALY":261.9192,"EPHEMERIS_TYPE":0,"CLASSIFICATION_TYPE":"U","NORAD_CAT_ID":48222,"ELEMENT_SET_NO":999,"REV_AT_EPOCH":20872,"BSTAR":-0.00047173,"MEAN_MOTION_DOT":-1.62e-6,"MEAN_MOTION_DDOT":0},{"OBJECT_NAME":"ONEWEB-0219","OBJECT_ID":"2021-031P","EPOCH":"2025-08-20T18:52:32.551968","MEAN_MOTION":13.14501346,"ECCENTRICITY":0.0001778,"INCLINATION":87.9091,"RA_OF_ASC_NODE":349.4868,"ARG_OF_PERICENTER":109.3224,"MEAN_ANOMALY":250.8099,"EPHEMERIS_TYPE":0,"CLASSIFICATION_TYPE":"U","NORAD_CAT_ID":48223,"ELEMENT_SET_NO":999,"REV_AT_EPOCH":20891,"BSTAR":0.0003305,"MEAN_MOTION_DOT":1.35e-6,"MEAN_MOTION_DDOT":0},{"OBJECT_NAME":"ONEWEB-0202","OBJECT_ID":"2021-031Q","EPOCH":"2025-08-20T20:14:45.019968","MEAN_MOTION":13.14501172,"ECCENTRICITY":0.0001083,"INCLINATION":87.9086,"RA_OF_ASC_NODE":349.4897,"ARG_OF_PERICENTER":94.716,"MEAN_ANOMALY":265.4093,"EPHEMERIS_TYPE":0,"CLASSIFICATION_TYPE":"U","NORAD_CAT_ID":48224,"ELEMENT_SET_NO":999,"REV_AT_EPOCH":20890,"BSTAR":0.00032325,"MEAN_MOTION_DOT":1.33e-6,"MEAN_MOTION_DDOT":0},{"OBJECT_NAME":"ONEWEB-0204","OBJECT_ID":"2021-031R","EPOCH":"2025-08-20T21:03:51.194304","MEAN_MOTION":13.1450171,"ECCENTRICITY":0.0002106,"INCLINATION":87.9075,"RA_OF_ASC_NODE":349.4753,"ARG_OF_PERICENTER":103.4206,"MEAN_ANOMALY":256.7158,"EPHEMERIS_TYPE":0,"CLASSIFICATION_TYPE":"U","NORAD_CAT_ID":48225,"ELEMENT_SET_NO":999,"REV_AT_EPOCH":20880,"BSTAR":-0.00049022,"MEAN_MOTION_DOT":-1.69e-6,"MEAN_MOTION_DDOT":0},{"OBJECT_NAME":"ONEWEB-0205","OBJECT_ID":"2021-031S","EPOCH":"2025-08-20T18:38:50.889696","MEAN_MOTION":13.14503053,"ECCENTRICITY":0.000177,"INCLINATION":87.9081,"RA_OF_ASC_NODE":349.4848,"ARG_OF_PERICENTER":105.9579,"MEAN_ANOMALY":254.1746,"EPHEMERIS_TYPE":0,"CLASSIFICATION_TYPE":"U","NORAD_CAT_ID":48226,"ELEMENT_SET_NO":999,"REV_AT_EPOCH":20880,"BSTAR":0.00055091,"MEAN_MOTION_DOT":2.17e-6,"MEAN_MOTION_DDOT":0},{"OBJECT_NAME":"ONEWEB-0206","OBJECT_ID":"2021-031T","EPOCH":"2025-08-20T19:49:38.094240","MEAN_MOTION":13.14501889,"ECCENTRICITY":0.0001853,"INCLINATION":87.9088,"RA_OF_ASC_NODE":349.4557,"ARG_OF_PERICENTER":102.2205,"MEAN_ANOMALY":257.9133,"EPHEMERIS_TYPE":0,"CLASSIFICATION_TYPE":"U","NORAD_CAT_ID":48227,"ELEMENT_SET_NO":999,"REV_AT_EPOCH":20876,"BSTAR":-0.00031365,"MEAN_MOTION_DOT":-1.04e-6,"MEAN_MOTION_DDOT":0},{"OBJECT_NAME":"ONEWEB-0182","OBJECT_ID":"2021-031U","EPOCH":"2025-08-20T19:42:47.165472","MEAN_MOTION":13.14504246,"ECCENTRICITY":0.0002022,"INCLINATION":87.9085,"RA_OF_ASC_NODE":349.5011,"ARG_OF_PERICENTER":103.9763,"MEAN_ANOMALY":256.1592,"EPHEMERIS_TYPE":0,"CLASSIFICATION_TYPE":"U","NORAD_CAT_ID":48228,"ELEMENT_SET_NO":999,"REV_AT_EPOCH":20897,"BSTAR":-0.00046046,"MEAN_MOTION_DOT":-1.58e-6,"MEAN_MOTION_DDOT":0},{"OBJECT_NAME":"ONEWEB-0186","OBJECT_ID":"2021-031V","EPOCH":"2025-08-20T19:58:46.856064","MEAN_MOTION":13.14502486,"ECCENTRICITY":0.0001772,"INCLINATION":87.9091,"RA_OF_ASC_NODE":349.4603,"ARG_OF_PERICENTER":102.1879,"MEAN_ANOMALY":257.9449,"EPHEMERIS_TYPE":0,"CLASSIFICATION_TYPE":"U","NORAD_CAT_ID":48229,"ELEMENT_SET_NO":999,"REV_AT_EPOCH":20892,"BSTAR":-8.5468e-5,"MEAN_MOTION_DOT":-1.9e-7,"MEAN_MOTION_DDOT":0},{"OBJECT_NAME":"ONEWEB-0181","OBJECT_ID":"2021-031W","EPOCH":"2025-08-20T21:16:24.788064","MEAN_MOTION":13.14501759,"ECCENTRICITY":0.000162,"INCLINATION":87.9086,"RA_OF_ASC_NODE":349.5225,"ARG_OF_PERICENTER":99.7415,"MEAN_ANOMALY":260.3898,"EPHEMERIS_TYPE":0,"CLASSIFICATION_TYPE":"U","NORAD_CAT_ID":48230,"ELEMENT_SET_NO":999,"REV_AT_EPOCH":20878,"BSTAR":-0.00049575,"MEAN_MOTION_DOT":-1.71e-6,"MEAN_MOTION_DDOT":0},{"OBJECT_NAME":"ONEWEB-0188","OBJECT_ID":"2021-031X","EPOCH":"2025-08-20T18:31:59.496096","MEAN_MOTION":13.14501877,"ECCENTRICITY":0.0001845,"INCLINATION":87.9091,"RA_OF_ASC_NODE":349.5357,"ARG_OF_PERICENTER":101.5278,"MEAN_ANOMALY":258.6058,"EPHEMERIS_TYPE":0,"CLASSIFICATION_TYPE":"U","NORAD_CAT_ID":48231,"ELEMENT_SET_NO":999,"REV_AT_EPOCH":20867,"BSTAR":0.00066783,"MEAN_MOTION_DOT":2.6e-6,"MEAN_MOTION_DDOT":0},{"OBJECT_NAME":"ONEWEB-0220","OBJECT_ID":"2021-031Y","EPOCH":"2025-08-20T21:18:41.224896","MEAN_MOTION":13.14504495,"ECCENTRICITY":0.0001765,"INCLINATION":87.9087,"RA_OF_ASC_NODE":349.4519,"ARG_OF_PERICENTER":107.8999,"MEAN_ANOMALY":252.2323,"EPHEMERIS_TYPE":0,"CLASSIFICATION_TYPE":"U","NORAD_CAT_ID":48232,"ELEMENT_SET_NO":999,"REV_AT_EPOCH":20895,"BSTAR":-0.00052236,"MEAN_MOTION_DOT":-1.81e-6,"MEAN_MOTION_DDOT":0},{"OBJECT_NAME":"ONEWEB-0165","OBJECT_ID":"2021-031Z","EPOCH":"2025-08-20T20:10:10.972128","MEAN_MOTION":13.1450383,"ECCENTRICITY":0.0001706,"INCLINATION":87.9076,"RA_OF_ASC_NODE":349.5046,"ARG_OF_PERICENTER":106.8197,"MEAN_ANOMALY":253.3119,"EPHEMERIS_TYPE":0,"CLASSIFICATION_TYPE":"U","NORAD_CAT_ID":48233,"ELEMENT_SET_NO":999,"REV_AT_EPOCH":20890,"BSTAR":0.00028599,"MEAN_MOTION_DOT":1.19e-6,"MEAN_MOTION_DDOT":0},{"OBJECT_NAME":"ONEWEB-0199","OBJECT_ID":"2021-031AA","EPOCH":"2025-08-20T19:47:21.236640","MEAN_MOTION":13.14501163,"ECCENTRICITY":0.0001917,"INCLINATION":87.908,"RA_OF_ASC_NODE":349.4723,"ARG_OF_PERICENTER":96.167,"MEAN_ANOMALY":263.9679,"EPHEMERIS_TYPE":0,"CLASSIFICATION_TYPE":"U","NORAD_CAT_ID":48234,"ELEMENT_SET_NO":999,"REV_AT_EPOCH":20880,"BSTAR":-0.00052282,"MEAN_MOTION_DOT":-1.81e-6,"MEAN_MOTION_DDOT":0},{"OBJECT_NAME":"ONEWEB-0203","OBJECT_ID":"2021-031AB","EPOCH":"2025-08-20T21:23:16.128096","MEAN_MOTION":13.14503644,"ECCENTRICITY":0.0001691,"INCLINATION":87.9082,"RA_OF_ASC_NODE":349.4609,"ARG_OF_PERICENTER":92.0935,"MEAN_ANOMALY":268.0389,"EPHEMERIS_TYPE":0,"CLASSIFICATION_TYPE":"U","NORAD_CAT_ID":48235,"ELEMENT_SET_NO":999,"REV_AT_EPOCH":20882,"BSTAR":-0.0006067,"MEAN_MOTION_DOT":-2.12e-6,"MEAN_MOTION_DDOT":0}]
