ONEWEB-0183             
1 48219U 21031K   25232.83088256 -.00000242  00000+0 -68590-3 0  9995
2 48219  87.9087 349.4998 0001974 104.9106 255.2242 13.14503301208860
ONEWEB-0185             
1 48220U 21031L   25232.78094230  .00000190  00000+0  47702-3 0  9992
2 48220  87.9088 349.4756 0001876 112.8187 247.3141 13.14502320208784
ONEWEB-0187             
1 48221U 21031M   25232.83710074 -.00000092  00000+0 -28177-3 0  9998
2 48221  87.9085 349.5108 0001700 108.4803 251.6511 13.14502343208803
ONEWEB-0192             
1 48222U 21031N   25232.88322515 -.00000162  00000+0 -47173-3 0  9998
2 48222  87.9088 349.4954 0001748  98.2136 261.9192 13.14502044208720
ONEWEB-0219             
1 48223U 21031P   25232.78648787  .00000135  00000+0  33050-3 0  9997
2 48223  87.9091 349.4868 0001778 109.3224 250.8099 13.14501346208912
ONEWEB-0202             
1 48224U 21031Q   25232.84357662  .00000133  00000+0  32325-3 0  9996
2 48224  87.9086 349.4897 0001083  94.7160 265.4093 13.14501172208906
ONEWEB-0204             
1 48225U 21031R   25232.87767586 -.00000169  00000+0 -49022-3 0  9993
2 48225  87.9075 349.4753 0002106 103.4206 256.7158 13.14501710208804
ONEWEB-0205             
1 48226U 21031S   25232.77697789  .00000217  00000+0  55091-3 0  9995
2 48226  87.9081 349.4848 0001770 105.9579 254.1746 13.14503053208800
ONEWEB-0206             
1 48227U 21031T   25232.82613535 -.00000104  00000+0 -31365-3 0  9994
2 48227  87.9088 349.4557 0001853 102.2205 257.9133 13.14501889208764
ONEWEB-0182             
1 48228U 21031U   25232.82137923 -.00000158  00000+0 -46046-3 0  9998
2 48228  87.9085 349.5011 0002022 103.9763 256.1592 13.14504246208977
ONEWEB-0186             
1 48229U 21031V   25232.83248676 -.00000019  00000+0 -85468-4 0  9996
2 48229  87.9091 349.4603 0001772 102.1879 257.9449 13.14502486208920
ONEWEB-0181             
1 48230U 21031W   25232.88639801 -.00000171  00000+0 -49575-3 0  9994
2 48230  87.9086 349.5225 0001620  99.7415 260.3898 13.14501759208788
ONEWEB-0188             
1 48231U 21031X   25232.77221639  .00000260  00000+0  66783-3 0  9996
2 48231  87.9091 349.5357 0001845 101.5278 258.6058 13.14501877208676
ONEWEB-0220             
1 48232U 21031Y   25232.88797714 -.00000181  00000+0 -52236-3 0  9993
2 48232  87.9087 349.4519 0001765 107.8999 252.2323 13.14504495208956
ONEWEB-0165             
1 48233U 21031Z   25232.84040477  .00000119  00000+0  28599-3 0  9991
2 48233  87.9076 349.5046 0001706 106.8197 253.3119 13.14503830208907
ONEWEB-0199             
1 48234U 21031AA  25232.82455135 -.00000181  00000+0 -52282-3 0  9998
2 48234  87.9080 349.4723 0001917  96.1670 263.9679 13.14501163208809
ONEWEB-0203             
1 48235U 21031AB  25232.89115889 -.00000212  00000+0 -60670-3 0  9990
2 48235  87.9082 349.4609 0001691  92.0935 268.0389 13.14503644208825
